{
  "type": "FeatureCollection",
  "features": [
    {
      "type": "Feature",
      "properties": {
        "norad_id": 30153,
        "name": "FENGYUN 1C DEB",
        "group": "fengyun-1c-debris",
        "lat": -1.0373470334699968,
        "lon": -16.988684505312396,
        "alt_km": 824.6093359400948,
        "timestamp": "2025-12-17T21:39:45.961669+00:00",
        "meta_object_name": "FENGYUN 1C DEB",
        "meta_object_id": "1999-025TJ",
        "meta_epoch": "2025-12-17T10:15:49.988160",
        "meta_mean_motion": 13.78783525,
        "meta_eccentricity": 0.02006685,
        "meta_inclination": 100.4669,
        "meta_ra_of_asc_node": 342.2956,
        "meta_arg_of_pericenter": 353.736,
        "meta_mean_anomaly": 168.784,
        "meta_ephemeris_type": 0,
        "meta_classification_type": "U",
        "meta_norad_cat_id": 30153,
        "meta_element_set_no": 999,
        "meta_rev_at_epoch": 94839,
        "meta_bstar": 0.0010919703,
        "meta_mean_motion_dot": 1.237e-05,
        "meta_mean_motion_ddot": 0,
        "tle_line1": "1 30153U 99025TJ  25351.42766190  .00001237  00000+0  10920-2 0  9994",
        "tle_line2": "2 30153 100.4669 342.2956 0200668 353.7360 168.7840 13.78783525948396"
      },
      "geometry": {
        "type": "Point",
        "coordinates": [
          -16.988684505312396,
          -1.0373470334699968
        ]
      }
    },
    {
      "type": "Feature",
      "properties": {
        "norad_id": 30154,
        "name": "FENGYUN 1C DEB",
        "group": "fengyun-1c-debris",
        "lat": 20.661237884089154,
        "lon": 29.97611005738757,
        "alt_km": 1070.9149380154422,
        "timestamp": "2025-12-17T21:39:45.961678+00:00",
        "meta_object_name": "FENGYUN 1C DEB",
        "meta_object_id": "1999-025TK",
        "meta_epoch": "2025-12-17T02:47:27.819744",
        "meta_mean_motion": 13.86005846,
        "meta_eccentricity": 0.0183019,
        "meta_inclination": 98.4492,
        "meta_ra_of_asc_node": 32.4792,
        "meta_arg_of_pericenter": 186.8216,
        "meta_mean_anomaly": 233.4884,
        "meta_ephemeris_type": 0,
        "meta_classification_type": "U",
        "meta_norad_cat_id": 30154,
        "meta_element_set_no": 999,
        "meta_rev_at_epoch": 95045,
        "meta_bstar": 0.001252765,
        "meta_mean_motion_dot": 1.606e-05,
        "meta_mean_motion_ddot": 0,
        "tle_line1": "1 30154U 99025TK  25351.11629421  .00001606  00000+0  12528-2 0  9992",
        "tle_line2": "2 30154  98.4492  32.4792 0183019 186.8216 233.4884 13.86005846950458"
      },
      "geometry": {
        "type": "Point",
        "coordinates": [
          29.97611005738757,
          20.661237884089154
        ]
      }
    },
    {
      "type": "Feature",
      "properties": {
        "norad_id": 30155,
        "name": "FENGYUN 1C DEB",
        "group": "fengyun-1c-debris",
        "lat": 16.361050759258983,
        "lon": 62.639436269033,
        "alt_km": 861.0827084685943,
        "timestamp": "2025-12-17T21:39:45.961687+00:00",
        "meta_object_name": "FENGYUN 1C DEB",
        "meta_object_id": "1999-025TL",
        "meta_epoch": "2025-12-17T11:05:53.731680",
        "meta_mean_motion": 13.73820771,
        "meta_eccentricity": 0.02420551,
        "meta_inclination": 99.7518,
        "meta_ra_of_asc_node": 65.0842,
        "meta_arg_of_pericenter": 331.4987,
        "meta_mean_anomaly": 27.31,
        "meta_ephemeris_type": 0,
        "meta_classification_type": "U",
        "meta_norad_cat_id": 30155,
        "meta_element_set_no": 999,
        "meta_rev_at_epoch": 93929,
        "meta_bstar": 0.0016108494,
        "meta_mean_motion_dot": 1.815e-05,
        "meta_mean_motion_ddot": 0,
        "tle_line1": "1 30155U 99025TL  25351.46242745  .00001815  00000+0  16108-2 0  9991",
        "tle_line2": "2 30155  99.7518  65.0842 0242055 331.4987  27.3100 13.73820771939297"
      },
      "geometry": {
        "type": "Point",
        "coordinates": [
          62.639436269033,
          16.361050759258983
        ]
      }
    },
    {
      "type": "Feature",
      "properties": {
        "norad_id": 30156,
        "name": "FENGYUN 1C DEB",
        "group": "fengyun-1c-debris",
        "lat": 38.818365603726,
        "lon": -48.64086261201393,
        "alt_km": 1084.2691222900094,
        "timestamp": "2025-12-17T21:39:45.961696+00:00",
        "meta_object_name": "FENGYUN 1C DEB",
        "meta_object_id": "1999-025TM",
        "meta_epoch": "2025-12-17T11:36:33.621408",
        "meta_mean_motion": 13.80827422,
        "meta_eccentricity": 0.01989223,
        "meta_inclination": 98.9184,
        "meta_ra_of_asc_node": 318.2211,
        "meta_arg_of_pericenter": 250.1204,
        "meta_mean_anomaly": 227.0258,
        "meta_ephemeris_type": 0,
        "meta_classification_type": "U",
        "meta_norad_cat_id": 30156,
        "meta_element_set_no": 999,
        "meta_rev_at_epoch": 94756,
        "meta_bstar": 0.00093314942,
        "meta_mean_motion_dot": 1.099e-05,
        "meta_mean_motion_ddot": 0,
        "tle_line1": "1 30156U 99025TM  25351.48372247  .00001099  00000+0  93315-3 0  9995",
        "tle_line2": "2 30156  98.9184 318.2211 0198922 250.1204 227.0258 13.80827422947563"
      },
      "geometry": {
        "type": "Point",
        "coordinates": [
          -48.64086261201393,
          38.818365603726
        ]
      }
    },
    {
      "type": "Feature",
      "properties": {
        "norad_id": 30157,
        "name": "FENGYUN 1C DEB",
        "group": "fengyun-1c-debris",
        "lat": 67.30615226246186,
        "lon": 67.55122873762872,
        "alt_km": 743.40751999654,
        "timestamp": "2025-12-17T21:39:45.961706+00:00",
        "meta_object_name": "FENGYUN 1C DEB",
        "meta_object_id": "1999-025TN",
        "meta_epoch": "2025-12-16T05:43:00.765984",
        "meta_mean_motion": 14.45151688,
        "meta_eccentricity": 0.00371207,
        "meta_inclination": 98.7158,
        "meta_ra_of_asc_node": 87.3642,
        "meta_arg_of_pericenter": 183.0008,
        "meta_mean_anomaly": 232.1673,
        "meta_ephemeris_type": 0,
        "meta_classification_type": "U",
        "meta_norad_cat_id": 30157,
        "meta_element_set_no": 999,
        "meta_rev_at_epoch": 98123,
        "meta_bstar": 0.0015206291,
        "meta_mean_motion_dot": 5.324e-05,
        "meta_mean_motion_ddot": 0,
        "tle_line1": "1 30157U 99025TN  25350.23820331  .00005324  00000+0  15206-2 0  9997",
        "tle_line2": "2 30157  98.7158  87.3642 0037120 183.0008 232.1673 14.45151688981239"
      },
      "geometry": {
        "type": "Point",
        "coordinates": [
          67.55122873762872,
          67.30615226246186
        ]
      }
    },
    {
      "type": "Feature",
      "properties": {
        "norad_id": 30160,
        "name": "FENGYUN 1C DEB",
        "group": "fengyun-1c-debris",
        "lat": 18.873793910242227,
        "lon": -63.19527164827842,
        "alt_km": 1114.735405994852,
        "timestamp": "2025-12-17T21:39:45.961714+00:00",
        "meta_object_name": "FENGYUN 1C DEB",
        "meta_object_id": "1999-025TR",
        "meta_epoch": "2025-12-17T08:00:02.031840",
        "meta_mean_motion": 13.42896428,
        "meta_eccentricity": 0.03430297,
        "meta_inclination": 98.8865,
        "meta_ra_of_asc_node": 299.3677,
        "meta_arg_of_pericenter": 116.2197,
        "meta_mean_anomaly": 36.3133,
        "meta_ephemeris_type": 0,
        "meta_classification_type": "U",
        "meta_norad_cat_id": 30160,
        "meta_element_set_no": 999,
        "meta_rev_at_epoch": 92475,
        "meta_bstar": 0.00085817015,
        "meta_mean_motion_dot": 6.59e-06,
        "meta_mean_motion_ddot": 0,
        "tle_line1": "1 30160U 99025TR  25351.33335685  .00000659  00000+0  85817-3 0  9998",
        "tle_line2": "2 30160  98.8865 299.3677 0343029 116.2197  36.3133 13.42896428924750"
      },
      "geometry": {
        "type": "Point",
        "coordinates": [
          -63.19527164827842,
          18.873793910242227
        ]
      }
    },
    {
      "type": "Feature",
      "properties": {
        "norad_id": 30161,
        "name": "FENGYUN 1C DEB",
        "group": "fengyun-1c-debris",
        "lat": 63.83404246218378,
        "lon": -42.60237572372965,
        "alt_km": 1311.3142545344635,
        "timestamp": "2025-12-17T21:39:45.961724+00:00",
        "meta_object_name": "FENGYUN 1C DEB",
        "meta_object_id": "1999-025TS",
        "meta_epoch": "2025-12-17T13:01:37.448256",
        "meta_mean_motion": 13.49735023,
        "meta_eccentricity": 0.03279855,
        "meta_inclination": 100.505,
        "meta_ra_of_asc_node": 339.2052,
        "meta_arg_of_pericenter": 246.2852,
        "meta_mean_anomaly": 232.1748,
        "meta_ephemeris_type": 0,
        "meta_classification_type": "U",
        "meta_norad_cat_id": 30161,
        "meta_element_set_no": 999,
        "meta_rev_at_epoch": 92624,
        "meta_bstar": 0.0014151865,
        "meta_mean_motion_dot": 1.2e-05,
        "meta_mean_motion_ddot": 0,
        "tle_line1": "1 30161U 99025TS  25351.54279454  .00001200  00000+0  14152-2 0  9999",
        "tle_line2": "2 30161 100.5050 339.2052 0327985 246.2852 232.1748 13.49735023926248"
      },
      "geometry": {
        "type": "Point",
        "coordinates": [
          -42.60237572372965,
          63.83404246218378
        ]
      }
    }
  ]
}